ONEWEB-0275             
1 48993U 21060AC  25144.42899378  .00000073  00000+0  15634-3 0  9999
2 48993  87.9022 306.2665 0001666  97.2020 262.9300 13.16593304188408
ONEWEB-0276             
1 48994U 21060AD  25144.46222199  .00000044  00000+0  80270-4 0  9992
2 48994  87.9023 306.2563 0001796 104.4152 255.7178 13.16596318188421
ONEWEB-0277             
1 48995U 21060AE  25144.47490210 -.00000019  00000+0 -82300-4 0  9995
2 48995  87.9020 306.2903 0001495 106.9780 253.1515 13.16594967188411
ONEWEB-0278             
1 48996U 21060AF  25144.46540502  .00000040  00000+0  69716-4 0  9993
2 48996  87.9022 306.2527 0002046  97.3268 262.8096 13.16594832188549
ONEWEB-0279             
1 48997U 21060AG  25144.47331309 -.00000080  00000+0 -24321-3 0  9996
2 48997  87.9023 306.2472 0001457 100.9246 259.2049 13.16595093188472
ONEWEB-0280             
1 48998U 21060AH  25144.48835303  .00000065  00000+0  13576-3 0  9992
2 48998  87.9023 306.2503 0001911 107.2632 252.8708 13.16596110188418
ONEWEB-0281             
1 48999U 21060AJ  25144.49390700  .00000039  00000+0  68018-4 0  9994
2 48999  87.9022 306.2474 0001707  90.9192 269.2135 13.16593360188484
ONEWEB-0282             
1 49000U 21060AK  25144.44797367  .00000095  00000+0  21617-3 0  9998
2 49000  87.9018 306.2717 0001751 102.5928 257.5399 13.16595711188450
